[{"OBJECT_NAME":"STARLINK-3166","OBJECT_ID":"2022-010G","EPOCH":"2026-03-09T21:35:29.918112","MEAN_MOTION":15.08833653,"ECCENTRICITY":0.00012863,"INCLINATION":53.2172,"RA_OF_ASC_NODE":278.1879,"ARG_OF_PERICENTER":86.7711,"MEAN_ANOMALY":273.3429,"EPHEMERIS_TYPE":0,"CLASSIFICATION_TYPE":"U","NORAD_CAT_ID":51462,"ELEMENT_SET_NO":999,"REV_AT_EPOCH":22685,"BSTAR":4.44749e-5,"MEAN_MOTION_DOT":4.2e-6,"MEAN_MOTION_DDOT":0},{"OBJECT_NAME":"SL-8 DEB","OBJECT_ID":"1976-098E","EPOCH":"2026-03-09T08:07:12.416160","MEAN_MOTION":15.06605169,"ECCENTRICITY":0.00102283,"INCLINATION":74.028,"RA_OF_ASC_NODE":26.283,"ARG_OF_PERICENTER":218.296,"MEAN_ANOMALY":294.2383,"EPHEMERIS_TYPE":0,"CLASSIFICATION_TYPE":"U","NORAD_CAT_ID":18504,"ELEMENT_SET_NO":999,"REV_AT_EPOCH":18055,"BSTAR":0.0011587434,"MEAN_MOTION_DOT":0.00017191,"MEAN_MOTION_DDOT":0}]
